CCSDS_OMM_VERS = 2.0
CREATION_DATE  = 
ORIGINATOR     = 

OBJECT_NAME    = DELTA 2 R/B(1)
OBJECT_ID      = 1990-008B
CENTER_NAME    = EARTH
REF_FRAME      = TEME
TIME_SYSTEM    = UTC
MEAN_ELEMENT_THEORY = SGP/SGP4

EPOCH          = 2026-01-07T13:47:44.801376
MEAN_MOTION    = 15.47883849
ECCENTRICITY   = .01038954
INCLINATION    = 35.6035
RA_OF_ASC_NODE = 213.3985
ARG_OF_PERICENTER = 53.3971
MEAN_ANOMALY   = 307.6267

EPHEMERIS_TYPE = 0
CLASSIFICATION_TYPE = U
NORAD_CAT_ID   = 20453
ELEMENT_SET_NO = 999
REV_AT_EPOCH   = 91663
BSTAR          = .61464361E-3
MEAN_MOTION_DOT = .41153E-3
MEAN_MOTION_DDOT = 0

CCSDS_OMM_VERS = 2.0
CREATION_DATE  = 
ORIGINATOR     = 

OBJECT_NAME    = COSMOS 2058
OBJECT_ID      = 1990-010A
CENTER_NAME    = EARTH
REF_FRAME      = TEME
TIME_SYSTEM    = UTC
MEAN_ELEMENT_THEORY = SGP/SGP4

EPOCH          = 2026-01-08T15:38:03.575328
MEAN_MOTION    = 15.10772477
ECCENTRICITY   = .00100949
INCLINATION    = 82.4703
RA_OF_ASC_NODE = 106.5604
ARG_OF_PERICENTER = 176.9415
MEAN_ANOMALY   = 183.1878

EPHEMERIS_TYPE = 0
CLASSIFICATION_TYPE = U
NORAD_CAT_ID   = 20465
ELEMENT_SET_NO = 999
REV_AT_EPOCH   = 93317
BSTAR          = .28278038E-3
MEAN_MOTION_DOT = .4725E-4
MEAN_MOTION_DDOT = 0

CCSDS_OMM_VERS = 2.0
CREATION_DATE  = 
ORIGINATOR     = 

OBJECT_NAME    = SL-14 R/B
OBJECT_ID      = 1990-010B
CENTER_NAME    = EARTH
REF_FRAME      = TEME
TIME_SYSTEM    = UTC
MEAN_ELEMENT_THEORY = SGP/SGP4

EPOCH          = 2026-01-08T14:10:42.890016
MEAN_MOTION    = 14.83503870
ECCENTRICITY   = .0020905
INCLINATION    = 82.5039
RA_OF_ASC_NODE = 323.8295
ARG_OF_PERICENTER = 134.6101
MEAN_ANOMALY   = 225.6824

EPHEMERIS_TYPE = 0
CLASSIFICATION_TYPE = U
NORAD_CAT_ID   = 20466
ELEMENT_SET_NO = 999
REV_AT_EPOCH   = 91957
BSTAR          = .73597589E-4
MEAN_MOTION_DOT = .631E-5
MEAN_MOTION_DDOT = 0

CCSDS_OMM_VERS = 2.0
CREATION_DATE  = 
ORIGINATOR     = 

OBJECT_NAME    = SL-14 R/B
OBJECT_ID      = 1990-018B
CENTER_NAME    = EARTH
REF_FRAME      = TEME
TIME_SYSTEM    = UTC
MEAN_ELEMENT_THEORY = SGP/SGP4

EPOCH          = 2026-01-09T00:33:30.782880
MEAN_MOTION    = 14.82080960
ECCENTRICITY   = .0014992
INCLINATION    = 82.5219
RA_OF_ASC_NODE = 278.8665
ARG_OF_PERICENTER = 290.7166
MEAN_ANOMALY   = 69.2441

EPHEMERIS_TYPE = 0
CLASSIFICATION_TYPE = U
NORAD_CAT_ID   = 20511
ELEMENT_SET_NO = 999
REV_AT_EPOCH   = 91374
BSTAR          = .56403E-4
MEAN_MOTION_DOT = .472E-5
MEAN_MOTION_DDOT = 0

CCSDS_OMM_VERS = 2.0
CREATION_DATE  = 
ORIGINATOR     = 

OBJECT_NAME    = COSMOS 2084
OBJECT_ID      = 1990-055A
CENTER_NAME    = EARTH
REF_FRAME      = TEME
TIME_SYSTEM    = UTC
MEAN_ELEMENT_THEORY = SGP/SGP4

EPOCH          = 2026-01-08T19:23:12.924672
MEAN_MOTION    = 15.05219635
ECCENTRICITY   = .0027179
INCLINATION    = 62.7893
RA_OF_ASC_NODE = 179.7498
ARG_OF_PERICENTER = 178.7564
MEAN_ANOMALY   = 181.3609

EPHEMERIS_TYPE = 0
CLASSIFICATION_TYPE = U
NORAD_CAT_ID   = 20663
ELEMENT_SET_NO = 999
REV_AT_EPOCH   = 92730
BSTAR          = .30387E-3
MEAN_MOTION_DOT = .4191E-4
MEAN_MOTION_DDOT = 0

CCSDS_OMM_VERS = 2.0
CREATION_DATE  = 
ORIGINATOR     = 

OBJECT_NAME    = SL-6 R/B(2)
OBJECT_ID      = 1990-055D
CENTER_NAME    = EARTH
REF_FRAME      = TEME
TIME_SYSTEM    = UTC
MEAN_ELEMENT_THEORY = SGP/SGP4

EPOCH          = 2026-01-08T13:50:46.027104
MEAN_MOTION    = 15.03239648
ECCENTRICITY   = .0016089
INCLINATION    = 62.7835
RA_OF_ASC_NODE = 98.2176
ARG_OF_PERICENTER = 325.7670
MEAN_ANOMALY   = 34.2390

EPHEMERIS_TYPE = 0
CLASSIFICATION_TYPE = U
NORAD_CAT_ID   = 20666
ELEMENT_SET_NO = 999
REV_AT_EPOCH   = 92915
BSTAR          = .21782E-3
MEAN_MOTION_DOT = .2773E-4
MEAN_MOTION_DDOT = 0

CCSDS_OMM_VERS = 2.0
CREATION_DATE  = 
ORIGINATOR     = 

OBJECT_NAME    = SL-8 R/B
OBJECT_ID      = 1990-078B
CENTER_NAME    = EARTH
REF_FRAME      = TEME
TIME_SYSTEM    = UTC
MEAN_ELEMENT_THEORY = SGP/SGP4

EPOCH          = 2026-01-08T07:43:27.014016
MEAN_MOTION    = 14.86884762
ECCENTRICITY   = .03689977
INCLINATION    = 82.9065
RA_OF_ASC_NODE = 305.5017
ARG_OF_PERICENTER = 216.3690
MEAN_ANOMALY   = 141.1944

EPHEMERIS_TYPE = 0
CLASSIFICATION_TYPE = U
NORAD_CAT_ID   = 20775
ELEMENT_SET_NO = 999
REV_AT_EPOCH   = 80032
BSTAR          = .44932736E-3
MEAN_MOTION_DOT = .14733E-3
MEAN_MOTION_DDOT = 0

CCSDS_OMM_VERS = 2.0
CREATION_DATE  = 
ORIGINATOR     = 

OBJECT_NAME    = SL-8 R/B
OBJECT_ID      = 1991-006B
CENTER_NAME    = EARTH
REF_FRAME      = TEME
TIME_SYSTEM    = UTC
MEAN_ELEMENT_THEORY = SGP/SGP4

EPOCH          = 2026-01-08T23:59:12.003936
MEAN_MOTION    = 13.77492734
ECCENTRICITY   = .0021985
INCLINATION    = 82.9408
RA_OF_ASC_NODE = 214.4353
ARG_OF_PERICENTER = 199.7162
MEAN_ANOMALY   = 270.2563

EPHEMERIS_TYPE = 0
CLASSIFICATION_TYPE = U
NORAD_CAT_ID   = 21088
ELEMENT_SET_NO = 999
REV_AT_EPOCH   = 75585
BSTAR          = -.93334E-5
MEAN_MOTION_DOT = .6E-7
MEAN_MOTION_DDOT = 0

CCSDS_OMM_VERS = 2.0
CREATION_DATE  = 
ORIGINATOR     = 

OBJECT_NAME    = OKEAN-3
OBJECT_ID      = 1991-039A
CENTER_NAME    = EARTH
REF_FRAME      = TEME
TIME_SYSTEM    = UTC
MEAN_ELEMENT_THEORY = SGP/SGP4

EPOCH          = 2026-01-08T13:22:08.717376
MEAN_MOTION    = 15.04320133
ECCENTRICITY   = .00147272
INCLINATION    = 82.5163
RA_OF_ASC_NODE = 35.0834
ARG_OF_PERICENTER = 169.5246
MEAN_ANOMALY   = 190.6290

EPHEMERIS_TYPE = 0
CLASSIFICATION_TYPE = U
NORAD_CAT_ID   = 21397
ELEMENT_SET_NO = 999
REV_AT_EPOCH   = 85599
BSTAR          = .25446654E-3
MEAN_MOTION_DOT = .358E-4
MEAN_MOTION_DDOT = 0

CCSDS_OMM_VERS = 2.0
CREATION_DATE  = 
ORIGINATOR     = 

OBJECT_NAME    = COSMOS 2151
OBJECT_ID      = 1991-042A
CENTER_NAME    = EARTH
REF_FRAME      = TEME
TIME_SYSTEM    = UTC
MEAN_ELEMENT_THEORY = SGP/SGP4

EPOCH          = 2026-01-08T15:28:19.113024
MEAN_MOTION    = 14.99826310
ECCENTRICITY   = .00112304
INCLINATION    = 82.4979
RA_OF_ASC_NODE = 141.5747
ARG_OF_PERICENTER = 261.6226
MEAN_ANOMALY   = 98.3725

EPHEMERIS_TYPE = 0
CLASSIFICATION_TYPE = U
NORAD_CAT_ID   = 21422
ELEMENT_SET_NO = 999
REV_AT_EPOCH   = 85419
BSTAR          = .2596529E-3
MEAN_MOTION_DOT = .3243E-4
MEAN_MOTION_DDOT = 0

